FENGYUN 1C DEB          
1 31028U 99025BDW 17345.54052826  .00000087  00000-0  96804-4 0  9997
2 31028  98.7118  89.6529 0168608  14.2288 346.3536 13.87172840214607
